CCSDS_OMM_VERS = 2.0
CREATION_DATE  = 
ORIGINATOR     = 

OBJECT_NAME    = STARLINK-36840
OBJECT_ID      = 2026-034A
CENTER_NAME    = EARTH
REF_FRAME      = TEME
TIME_SYSTEM    = UTC
MEAN_ELEMENT_THEORY = SGP/SGP4

EPOCH          = 2026-03-05T22:31:23.057184
MEAN_MOTION    = 15.80959374
ECCENTRICITY   = .00010305
INCLINATION    = 53.1594
RA_OF_ASC_NODE = 230.1579
ARG_OF_PERICENTER = 49.0871
MEAN_ANOMALY   = 311.0241

EPHEMERIS_TYPE = 0
CLASSIFICATION_TYPE = U
NORAD_CAT_ID   = 67850
ELEMENT_SET_NO = 999
REV_AT_EPOCH   = 334
BSTAR          = .1135636E-2
MEAN_MOTION_DOT = .230437E-2
MEAN_MOTION_DDOT = 0

CCSDS_OMM_VERS = 2.0
CREATION_DATE  = 
ORIGINATOR     = 

OBJECT_NAME    = STARLINK-36348
OBJECT_ID      = 2026-034B
CENTER_NAME    = EARTH
REF_FRAME      = TEME
TIME_SYSTEM    = UTC
MEAN_ELEMENT_THEORY = SGP/SGP4

EPOCH          = 2026-03-05T22:30:18.150048
MEAN_MOTION    = 15.80972247
ECCENTRICITY   = .00010287
INCLINATION    = 53.1593
RA_OF_ASC_NODE = 230.1517
ARG_OF_PERICENTER = 52.4615
MEAN_ANOMALY   = 307.6501

EPHEMERIS_TYPE = 0
CLASSIFICATION_TYPE = U
NORAD_CAT_ID   = 67851
ELEMENT_SET_NO = 999
REV_AT_EPOCH   = 334
BSTAR          = .12085726E-2
MEAN_MOTION_DOT = .245872E-2
MEAN_MOTION_DDOT = 0

CCSDS_OMM_VERS = 2.0
CREATION_DATE  = 
ORIGINATOR     = 

OBJECT_NAME    = STARLINK-36276
OBJECT_ID      = 2026-034C
CENTER_NAME    = EARTH
REF_FRAME      = TEME
TIME_SYSTEM    = UTC
MEAN_ELEMENT_THEORY = SGP/SGP4

EPOCH          = 2026-03-05T22:29:13.403616
MEAN_MOTION    = 15.80965878
ECCENTRICITY   = .00012624
INCLINATION    = 53.1595
RA_OF_ASC_NODE = 230.1468
ARG_OF_PERICENTER = 38.5983
MEAN_ANOMALY   = 321.5130

EPHEMERIS_TYPE = 0
CLASSIFICATION_TYPE = U
NORAD_CAT_ID   = 67852
ELEMENT_SET_NO = 999
REV_AT_EPOCH   = 334
BSTAR          = .11886627E-2
MEAN_MOTION_DOT = .241618E-2
MEAN_MOTION_DDOT = 0

CCSDS_OMM_VERS = 2.0
CREATION_DATE  = 
ORIGINATOR     = 

OBJECT_NAME    = STARLINK-36785
OBJECT_ID      = 2026-034D
CENTER_NAME    = EARTH
REF_FRAME      = TEME
TIME_SYSTEM    = UTC
MEAN_ELEMENT_THEORY = SGP/SGP4

EPOCH          = 2026-03-05T22:28:08.668416
MEAN_MOTION    = 15.80967123
ECCENTRICITY   = .00013877
INCLINATION    = 53.1595
RA_OF_ASC_NODE = 230.1417
ARG_OF_PERICENTER = 65.2077
MEAN_ANOMALY   = 294.9090

EPHEMERIS_TYPE = 0
CLASSIFICATION_TYPE = U
NORAD_CAT_ID   = 67853
ELEMENT_SET_NO = 999
REV_AT_EPOCH   = 334
BSTAR          = .11631065E-2
MEAN_MOTION_DOT = .236274E-2
MEAN_MOTION_DDOT = 0

CCSDS_OMM_VERS = 2.0
CREATION_DATE  = 
ORIGINATOR     = 

OBJECT_NAME    = STARLINK-36608
OBJECT_ID      = 2026-034E
CENTER_NAME    = EARTH
REF_FRAME      = TEME
TIME_SYSTEM    = UTC
MEAN_ELEMENT_THEORY = SGP/SGP4

EPOCH          = 2026-03-05T22:27:03.750912
MEAN_MOTION    = 15.80957719
ECCENTRICITY   = .00010057
INCLINATION    = 53.1596
RA_OF_ASC_NODE = 230.1366
ARG_OF_PERICENTER = 45.5586
MEAN_ANOMALY   = 314.5518

EPHEMERIS_TYPE = 0
CLASSIFICATION_TYPE = U
NORAD_CAT_ID   = 67854
ELEMENT_SET_NO = 999
REV_AT_EPOCH   = 333
BSTAR          = .10422918E-2
MEAN_MOTION_DOT = .21094E-2
MEAN_MOTION_DDOT = 0

CCSDS_OMM_VERS = 2.0
CREATION_DATE  = 
ORIGINATOR     = 

OBJECT_NAME    = STARLINK-36838
OBJECT_ID      = 2026-034F
CENTER_NAME    = EARTH
REF_FRAME      = TEME
TIME_SYSTEM    = UTC
MEAN_ELEMENT_THEORY = SGP/SGP4

EPOCH          = 2026-03-05T22:25:58.972512
MEAN_MOTION    = 15.80966177
ECCENTRICITY   = .00012314
INCLINATION    = 53.1596
RA_OF_ASC_NODE = 230.1313
ARG_OF_PERICENTER = 46.1674
MEAN_ANOMALY   = 313.9451

EPHEMERIS_TYPE = 0
CLASSIFICATION_TYPE = U
NORAD_CAT_ID   = 67855
ELEMENT_SET_NO = 999
REV_AT_EPOCH   = 334
BSTAR          = .11933916E-2
MEAN_MOTION_DOT = .242613E-2
MEAN_MOTION_DDOT = 0

CCSDS_OMM_VERS = 2.0
CREATION_DATE  = 
ORIGINATOR     = 

OBJECT_NAME    = STARLINK-36843
OBJECT_ID      = 2026-034G
CENTER_NAME    = EARTH
REF_FRAME      = TEME
TIME_SYSTEM    = UTC
MEAN_ELEMENT_THEORY = SGP/SGP4

EPOCH          = 2026-03-05T22:23:49.374240
MEAN_MOTION    = 15.80958001
ECCENTRICITY   = .00008701
INCLINATION    = 53.1594
RA_OF_ASC_NODE = 230.1212
ARG_OF_PERICENTER = 55.0443
MEAN_ANOMALY   = 305.0662

EPHEMERIS_TYPE = 0
CLASSIFICATION_TYPE = U
NORAD_CAT_ID   = 67856
ELEMENT_SET_NO = 999
REV_AT_EPOCH   = 334
BSTAR          = .10044544E-2
MEAN_MOTION_DOT = .203073E-2
MEAN_MOTION_DDOT = 0

CCSDS_OMM_VERS = 2.0
CREATION_DATE  = 
ORIGINATOR     = 

OBJECT_NAME    = STARLINK-36828
OBJECT_ID      = 2026-034H
CENTER_NAME    = EARTH
REF_FRAME      = TEME
TIME_SYSTEM    = UTC
MEAN_ELEMENT_THEORY = SGP/SGP4

EPOCH          = 2026-03-05T22:24:53.996256
MEAN_MOTION    = 15.80974128
ECCENTRICITY   = .00015745
INCLINATION    = 53.1593
RA_OF_ASC_NODE = 230.1264
ARG_OF_PERICENTER = 31.6050
MEAN_ANOMALY   = 328.5067

EPHEMERIS_TYPE = 0
CLASSIFICATION_TYPE = U
NORAD_CAT_ID   = 67857
ELEMENT_SET_NO = 999
REV_AT_EPOCH   = 334
BSTAR          = .10878705E-2
MEAN_MOTION_DOT = .220612E-2
MEAN_MOTION_DDOT = 0

CCSDS_OMM_VERS = 2.0
CREATION_DATE  = 
ORIGINATOR     = 

OBJECT_NAME    = STARLINK-36837
OBJECT_ID      = 2026-034J
CENTER_NAME    = EARTH
REF_FRAME      = TEME
TIME_SYSTEM    = UTC
MEAN_ELEMENT_THEORY = SGP/SGP4

EPOCH          = 2026-03-05T22:22:44.508576
MEAN_MOTION    = 15.80965326
ECCENTRICITY   = .0000918
INCLINATION    = 53.1595
RA_OF_ASC_NODE = 230.1155
ARG_OF_PERICENTER = 52.1658
MEAN_ANOMALY   = 307.9448

EPHEMERIS_TYPE = 0
CLASSIFICATION_TYPE = U
NORAD_CAT_ID   = 67858
ELEMENT_SET_NO = 999
REV_AT_EPOCH   = 334
BSTAR          = .1087574E-2
MEAN_MOTION_DOT = .220458E-2
MEAN_MOTION_DDOT = 0

CCSDS_OMM_VERS = 2.0
CREATION_DATE  = 
ORIGINATOR     = 

OBJECT_NAME    = STARLINK-36393
OBJECT_ID      = 2026-034K
CENTER_NAME    = EARTH
REF_FRAME      = TEME
TIME_SYSTEM    = UTC
MEAN_ELEMENT_THEORY = SGP/SGP4

EPOCH          = 2026-03-05T22:21:39.868416
MEAN_MOTION    = 15.80945119
ECCENTRICITY   = .00011914
INCLINATION    = 53.1597
RA_OF_ASC_NODE = 230.1106
ARG_OF_PERICENTER = 54.6362
MEAN_ANOMALY   = 305.4772

EPHEMERIS_TYPE = 0
CLASSIFICATION_TYPE = U
NORAD_CAT_ID   = 67859
ELEMENT_SET_NO = 999
REV_AT_EPOCH   = 334
BSTAR          = .88592246E-3
MEAN_MOTION_DOT = .178404E-2
MEAN_MOTION_DDOT = 0

CCSDS_OMM_VERS = 2.0
CREATION_DATE  = 
ORIGINATOR     = 

OBJECT_NAME    = STARLINK-35873
OBJECT_ID      = 2026-034L
CENTER_NAME    = EARTH
REF_FRAME      = TEME
TIME_SYSTEM    = UTC
MEAN_ELEMENT_THEORY = SGP/SGP4

EPOCH          = 2026-03-05T22:20:34.748736
MEAN_MOTION    = 15.81009553
ECCENTRICITY   = .00014852
INCLINATION    = 53.1593
RA_OF_ASC_NODE = 230.1052
ARG_OF_PERICENTER = 39.8145
MEAN_ANOMALY   = 320.2986

EPHEMERIS_TYPE = 0
CLASSIFICATION_TYPE = U
NORAD_CAT_ID   = 67860
ELEMENT_SET_NO = 999
REV_AT_EPOCH   = 337
BSTAR          = .15965593E-2
MEAN_MOTION_DOT = .328765E-2
MEAN_MOTION_DDOT = 0

CCSDS_OMM_VERS = 2.0
CREATION_DATE  = 
ORIGINATOR     = 

OBJECT_NAME    = STARLINK-36325
OBJECT_ID      = 2026-034M
CENTER_NAME    = EARTH
REF_FRAME      = TEME
TIME_SYSTEM    = UTC
MEAN_ELEMENT_THEORY = SGP/SGP4

EPOCH          = 2026-03-05T22:19:30.119808
MEAN_MOTION    = 15.80949963
ECCENTRICITY   = .00011641
INCLINATION    = 53.1597
RA_OF_ASC_NODE = 230.1000
ARG_OF_PERICENTER = 44.0139
MEAN_ANOMALY   = 316.0977

EPHEMERIS_TYPE = 0
CLASSIFICATION_TYPE = U
NORAD_CAT_ID   = 67861
ELEMENT_SET_NO = 999
REV_AT_EPOCH   = 334
BSTAR          = .94382432E-3
MEAN_MOTION_DOT = .19042E-2
MEAN_MOTION_DDOT = 0

