STARLINK-36840          
1 67850U 26034A   26064.93846131  .00230437  00000+0  11356-2 0  9990
2 67850  53.1594 230.1579 0001030  49.0871 311.0241 15.80959374  3348
STARLINK-36348          
1 67851U 26034B   26064.93771007  .00245872  00000+0  12086-2 0  9990
2 67851  53.1593 230.1517 0001028  52.4615 307.6501 15.80972247  3345
STARLINK-36276          
1 67852U 26034C   26064.93696069  .00241618  00000+0  11887-2 0  9997
2 67852  53.1595 230.1468 0001262  38.5983 321.5130 15.80965878  3341
STARLINK-36785          
1 67853U 26034D   26064.93621144  .00236274  00000+0  11631-2 0  9999
2 67853  53.1595 230.1417 0001387  65.2077 294.9090 15.80967123  3348
STARLINK-36608          
1 67854U 26034E   26064.93546008  .00210940  00000+0  10423-2 0  9995
2 67854  53.1596 230.1366 0001005  45.5586 314.5518 15.80957719  3339
STARLINK-36838          
1 67855U 26034F   26064.93471033  .00242613  00000+0  11934-2 0  9991
2 67855  53.1596 230.1313 0001231  46.1674 313.9451 15.80966177  3346
STARLINK-36843          
1 67856U 26034G   26064.93321035  .00203073  00000+0  10045-2 0  9997
2 67856  53.1594 230.1212 0000870  55.0443 305.0662 15.80958001  3347
STARLINK-36828          
1 67857U 26034H   26064.93395829  .00220612  00000+0  10879-2 0  9993
2 67857  53.1593 230.1264 0001574  31.6050 328.5067 15.80974128  3347
STARLINK-36837          
1 67858U 26034J   26064.93245959  .00220458  00000+0  10876-2 0  9997
2 67858  53.1595 230.1155 0000918  52.1658 307.9448 15.80965326  3346
STARLINK-36393          
1 67859U 26034K   26064.93171144  .00178404  00000+0  88592-3 0  9996
2 67859  53.1597 230.1106 0001191  54.6362 305.4772 15.80945119  3349
STARLINK-35873          
1 67860U 26034L   26064.93095774  .00328765  00000+0  15966-2 0  9993
2 67860  53.1593 230.1052 0001485  39.8145 320.2986 15.81009553  3376
STARLINK-36325          
1 67861U 26034M   26064.93020972  .00190420  00000+0  94382-3 0  9997
2 67861  53.1597 230.1000 0001164  44.0139 316.0977 15.80949963  3346
